COSMOS 2534 [GLONASS-M] 
1 44299U 19030A   26197.64953360  .00000052  00000+0  00000+0 0  9997
2 44299  64.3705 191.6243 0013502 275.0108 146.6615  2.13102191 55554
BEIDOU-3 IGSO-2         
1 44337U 19035A   26198.79038544 -.00000127  00000+0  00000+0 0  9994
2 44337  55.2514 158.5934 0039283 216.3777 323.5324  1.00256724 25970
NAVSTAR 78 (USA 293)    
1 44506U 19056A   26198.54418769 -.00000100  00000+0  00000+0 0  9990
2 44506  55.6206 329.9359 0063535 198.1981 149.1155  2.00570120 50675
BEIDOU-3 M24            
1 44542U 19061A   26198.84878935  .00000052  00000+0  00000+0 0  9999
2 44542  54.3974 181.6938 0008656 359.7978   0.1726  1.86229139 46368
BEIDOU-3 M23            
1 44543U 19061B   26197.36472383  .00000041  00000+0  00000+0 0  9991
2 44543  54.3958 181.7121 0005956 340.9242  15.4707  1.86227496 46331
EUTELSAT 5 WEST B       
1 44624U 19067A   26199.26495440 -.00000050  00000+0  00000+0 0  9998
2 44624   0.0792 319.6464 0003074 157.7821 269.0146  1.00271014 24749
BEIDOU-3 M22            
1 44793U 19078A   26194.39343167 -.00000062  00000+0  00000+0 0  9997
2 44793  53.9106 298.9058 0005750  50.3045 309.7753  1.86227300 45134
BEIDOU-3 M21            
1 44794U 19078B   26198.82898554 -.00000083  00000+0  00000+0 0  9998
2 44794  53.8792 298.7098 0003526  49.8357 310.2350  1.86227742 45225
COSMOS 2544 [GLONASS-M] 
1 44850U 19088A   26198.53131997 -.00000024  00000+0  00000+0 0  9996
2 44850  65.5819  72.7186 0012088 253.3927 106.5489  2.13102863 51362
BEIDOU-3 M19            
1 44864U 19090A   26198.80666387 -.00000060  00000+0  00000+0 0  9990
2 44864  56.5857  61.7789 0016787 297.6013 245.0681  1.86231385 44808
BEIDOU-3 M20            
1 44865U 19090B   26199.24902023 -.00000064  00000+0  00000+0 0  9994
2 44865  56.5878  61.7982 0014280 312.4225 256.4049  1.86231410 44795
BEIDOU-3 G2             
1 45344U 20017A   26198.99665131 -.00000150  00000+0  00000+0 0  9991
2 45344   2.9256  47.7776 0001768  59.2787 267.5564  1.00272377 23564
COSMOS 2545 [GLONASS-M] 
1 45358U 20018A   26198.72624926 -.00000069  00000+0  00000+0 0  9994
2 45358  64.3350 311.3457 0009663 229.7748 130.1625  2.13102350 49317
BEIDOU-3 G3             
1 45807U 20040A   26199.28783450 -.00000363  00000+0  00000+0 0  9995
2 45807   2.5221  67.4941 0002235 308.5280 134.1976  1.00274975 22388
NAVSTAR 79 (USA 304)    
1 45854U 20041A   26198.40284485 -.00000083  00000+0  00000+0 0  9994
2 45854  56.6898  27.7716 0065297 204.6840 337.6305  2.00557849 44648
GALAXY 30 (G-30)        
1 46114U 20056C   26199.22128090  .00000000  00000+0  00000+0 0  9998
2 46114   0.0231  61.1838 0002294  58.1239 131.3923  1.00271192 21600
COSMOS 2547 [GLONASS-K] 
1 46805U 20075A   26196.56966866  .00000054  00000+0  00000+0 0  9990
2 46805  64.6014 191.5282 0009458 239.8249 120.0839  2.13099910 44518
NAVSTAR 80 (USA 309)    
1 46826U 20078A   26199.24749039  .00000044  00000+0  00000+0 0  9994
2 46826  53.9768 209.5185 0074624 207.9047 201.6972  2.00565010 42134
NAVSTAR 81 (USA 319)    
1 48859U 21054A   26199.19806640 -.00000103  00000+0  00000+0 0  9990
2 48859  55.1578 331.2126 0026517 228.5635 331.7092  2.00567008 37370
QZS-1R (MICHIBIKI-1R)   
1 49336U 21096A   26198.56919843 -.00000311  00000+0  00000+0 0  9998
2 49336  37.5223  79.1315 0755353 272.2799 280.3110  1.00244494 17316
GSAT0223 (GALILEO 27)   
1 49809U 21116A   26197.91381390 -.00000103  00000+0  00000+0 0  9993
2 49809  57.1499 340.8723 0002440 195.3183 168.4273  1.70476073 28695
GSAT0224 (GALILEO 28)   
1 49810U 21116B   26197.72723839 -.00000103  00000+0  00000+0 0  9992
2 49810  57.1497 340.8759 0001842 181.9610 179.9110  1.70476111 28718
COSMOS 2557 [GLONASS-K] 
1 52984U 22075A   26196.73380763 -.00000064  00000+0  00000+0 0  9994
2 52984  64.2802 313.4798 0010855 271.2186  88.6706  2.13102146 31327
COSMOS 2559 [GLONASS-K] 
1 54031U 22130A   26198.89981604 -.00000072  00000+0  00000+0 0  9990
2 54031  64.2511 313.4857 0013130 181.3333 178.6825  2.13101711 29347
COSMOS 2564 [GLONASS-M] 
1 54377U 22161A   26198.74291069  .00000058  00000+0  00000+0 0  9993
2 54377  64.7440 191.6974 0012202 224.8378 135.0614  2.13102013 28284
NAVSTAR 82 (USA 343)    
1 55268U 23009A   26198.12434978  .00000024  00000+0  00000+0 0  9998
2 55268  55.1244 147.3421 0006238 322.1969 221.4770  2.00569455 25840
BEIDOU-3 G4             
1 56564U 23066A   26199.29364119 -.00000289  00000+0  00000+0 0  9993
2 56564   0.4580 339.8752 0004977 185.1329  16.8692  1.00271695 11700
NVS-01 (IRNSS-1J)       
1 56759U 23076A   26199.29156119 -.00000343  00000+0  00000+0 0  9990
2 56759   2.0942 242.9282 0003064  20.1091 267.4536  1.00277236 11425
COSMOS 2569 [GLONASS-K2]
1 57517U 23114A   26196.87819896 -.00000013  00000+0  00000+0 0  9999
2 57517  65.3185  71.6532 0009655 295.9092  64.0686  2.13103741 22871
BEIDOU-3 M28            
1 58654U 23207A   26198.90592297 -.00000063  00000+0  00000+0 0  9999
2 58654  55.7801  61.2668 0002336   7.0710 353.0002  1.86229739 17417
BEIDOU-3 M26            
1 58655U 23207B   26198.70341955 -.00000061  00000+0  00000+0 0  9999
2 58655  55.7823  61.2602 0001862 324.7003  35.3559  1.86229717 17397
